[{"OBJECT_NAME":"COSMOS 2251 DEB","OBJECT_ID":"1993-036RZ","EPOCH":"2026-03-05T16:56:42.708768","MEAN_MOTION":14.03179522,"ECCENTRICITY":0.0180199,"INCLINATION":73.829,"RA_OF_ASC_NODE":316.123,"ARG_OF_PERICENTER":23.4479,"MEAN_ANOMALY":7.4315,"EPHEMERIS_TYPE":0,"CLASSIFICATION_TYPE":"U","NORAD_CAT_ID":34432,"ELEMENT_SET_NO":999,"REV_AT_EPOCH":86848,"BSTAR":0.00096534,"MEAN_MOTION_DOT":1.711e-5,"MEAN_MOTION_DDOT":0},{"OBJECT_NAME":"COSMOS 2251 DEB","OBJECT_ID":"1993-036SA","EPOCH":"2026-03-05T19:25:48.828288","MEAN_MOTION":14.13449462,"ECCENTRICITY":0.0150229,"INCLINATION":74.0116,"RA_OF_ASC_NODE":7.7238,"ARG_OF_PERICENTER":127.4922,"MEAN_ANOMALY":233.9989,"EPHEMERIS_TYPE":0,"CLASSIFICATION_TYPE":"U","NORAD_CAT_ID":34433,"ELEMENT_SET_NO":999,"REV_AT_EPOCH":87123,"BSTAR":0.0015197,"MEAN_MOTION_DOT":3.16e-5,"MEAN_MOTION_DDOT":0},{"OBJECT_NAME":"COSMOS 2251 DEB","OBJECT_ID":"1993-036SB","EPOCH":"2026-03-05T15:23:08.135232","MEAN_MOTION":13.9056416,"ECCENTRICITY":0.0277391,"INCLINATION":74.0593,"RA_OF_ASC_NODE":229.0236,"ARG_OF_PERICENTER":346.5066,"MEAN_ANOMALY":111.4364,"EPHEMERIS_TYPE":0,"CLASSIFICATION_TYPE":"U","NORAD_CAT_ID":34434,"ELEMENT_SET_NO":999,"REV_AT_EPOCH":85118,"BSTAR":0.002221,"MEAN_MOTION_DOT":3.753e-5,"MEAN_MOTION_DDOT":0},{"OBJECT_NAME":"COSMOS 2251 DEB","OBJECT_ID":"1993-036SP","EPOCH":"2026-03-05T13:59:38.605344","MEAN_MOTION":14.49455218,"ECCENTRICITY":0.0050536,"INCLINATION":74.0389,"RA_OF_ASC_NODE":261.9114,"ARG_OF_PERICENTER":16.6047,"MEAN_ANOMALY":343.6753,"EPHEMERIS_TYPE":0,"CLASSIFICATION_TYPE":"U","NORAD_CAT_ID":34446,"ELEMENT_SET_NO":999,"REV_AT_EPOCH":89894,"BSTAR":0.00015189,"MEAN_MOTION_DOT":5.62e-6,"MEAN_MOTION_DDOT":0},{"OBJECT_NAME":"COSMOS 2251 DEB","OBJECT_ID":"1993-036SS","EPOCH":"2026-03-05T16:20:25.598112","MEAN_MOTION":15.01630257,"ECCENTRICITY":0.0020284,"INCLINATION":74.0275,"RA_OF_ASC_NODE":262.4208,"ARG_OF_PERICENTER":285.9402,"MEAN_ANOMALY":149.8142,"EPHEMERIS_TYPE":0,"CLASSIFICATION_TYPE":"U","NORAD_CAT_ID":34449,"ELEMENT_SET_NO":999,"REV_AT_EPOCH":89935,"BSTAR":0.0027856,"MEAN_MOTION_DOT":0.00036468,"MEAN_MOTION_DDOT":0},{"OBJECT_NAME":"COSMOS 2251 DEB","OBJECT_ID":"1993-036SU","EPOCH":"2026-03-05T14:54:28.376928","MEAN_MOTION":15.02752359,"ECCENTRICITY":0.0020616,"INCLINATION":74.0434,"RA_OF_ASC_NODE":279.7534,"ARG_OF_PERICENTER":279.1659,"MEAN_ANOMALY":80.7197,"EPHEMERIS_TYPE":0,"CLASSIFICATION_TYPE":"U","NORAD_CAT_ID":34451,"ELEMENT_SET_NO":999,"REV_AT_EPOCH":89877,"BSTAR":0.0025512,"MEAN_MOTION_DOT":0.00034395,"MEAN_MOTION_DDOT":0},{"OBJECT_NAME":"COSMOS 2251 DEB","OBJECT_ID":"1993-036SV","EPOCH":"2026-03-05T14:54:26.268768","MEAN_MOTION":15.1479793,"ECCENTRICITY":0.005776,"INCLINATION":74.0303,"RA_OF_ASC_NODE":10.8123,"ARG_OF_PERICENTER":65.6227,"MEAN_ANOMALY":295.098,"EPHEMERIS_TYPE":0,"CLASSIFICATION_TYPE":"U","NORAD_CAT_ID":34452,"ELEMENT_SET_NO":999,"REV_AT_EPOCH":91916,"BSTAR":0.001188,"MEAN_MOTION_DOT":0.00023034,"MEAN_MOTION_DDOT":0},{"OBJECT_NAME":"COSMOS 2251 DEB","OBJECT_ID":"1993-036SX","EPOCH":"2026-03-05T14:03:20.744064","MEAN_MOTION":14.38953384,"ECCENTRICITY":0.0034824,"INCLINATION":74.0578,"RA_OF_ASC_NODE":125.0515,"ARG_OF_PERICENTER":171.7145,"MEAN_ANOMALY":188.4592,"EPHEMERIS_TYPE":0,"CLASSIFICATION_TYPE":"U","NORAD_CAT_ID":34454,"ELEMENT_SET_NO":999,"REV_AT_EPOCH":89259,"BSTAR":0.00025095,"MEAN_MOTION_DOT":7.53e-6,"MEAN_MOTION_DDOT":0},{"OBJECT_NAME":"COSMOS 2251 DEB","OBJECT_ID":"1993-036TC","EPOCH":"2026-03-05T13:33:38.606688","MEAN_MOTION":14.00656925,"ECCENTRICITY":0.0190591,"INCLINATION":74.0774,"RA_OF_ASC_NODE":110.8797,"ARG_OF_PERICENTER":161.7083,"MEAN_ANOMALY":199.1034,"EPHEMERIS_TYPE":0,"CLASSIFICATION_TYPE":"U","NORAD_CAT_ID":34459,"ELEMENT_SET_NO":999,"REV_AT_EPOCH":86871,"BSTAR":0.00039102,"MEAN_MOTION_DOT":6.58e-6,"MEAN_MOTION_DDOT":0},{"OBJECT_NAME":"COSMOS 2251 DEB","OBJECT_ID":"1993-036TH","EPOCH":"2026-03-05T13:02:30.971328","MEAN_MOTION":15.47734743,"ECCENTRICITY":0.0011585,"INCLINATION":73.9787,"RA_OF_ASC_NODE":259.8958,"ARG_OF_PERICENTER":55.703,"MEAN_ANOMALY":304.5277,"EPHEMERIS_TYPE":0,"CLASSIFICATION_TYPE":"U","NORAD_CAT_ID":34464,"ELEMENT_SET_NO":999,"REV_AT_EPOCH":91111,"BSTAR":0.0041542,"MEAN_MOTION_DOT":0.00221928,"MEAN_MOTION_DDOT":0},{"OBJECT_NAME":"COSMOS 2251 DEB","OBJECT_ID":"1993-036TM","EPOCH":"2026-03-05T13:29:43.584000","MEAN_MOTION":14.47843804,"ECCENTRICITY":0.0073965,"INCLINATION":74.0143,"RA_OF_ASC_NODE":322.0112,"ARG_OF_PERICENTER":86.9054,"MEAN_ANOMALY":274.0566,"EPHEMERIS_TYPE":0,"CLASSIFICATION_TYPE":"U","NORAD_CAT_ID":34468,"ELEMENT_SET_NO":999,"REV_AT_EPOCH":89660,"BSTAR":0.0003579,"MEAN_MOTION_DOT":1.343e-5,"MEAN_MOTION_DDOT":0},{"OBJECT_NAME":"COSMOS 2251 DEB","OBJECT_ID":"1993-036TR","EPOCH":"2026-03-05T16:48:14.388192","MEAN_MOTION":13.70633227,"ECCENTRICITY":0.032798,"INCLINATION":74.0854,"RA_OF_ASC_NODE":321.6801,"ARG_OF_PERICENTER":73.3042,"MEAN_ANOMALY":290.38,"EPHEMERIS_TYPE":0,"CLASSIFICATION_TYPE":"U","NORAD_CAT_ID":34472,"ELEMENT_SET_NO":999,"REV_AT_EPOCH":84863,"BSTAR":0.0019416,"MEAN_MOTION_DOT":2.502e-5,"MEAN_MOTION_DDOT":0},{"OBJECT_NAME":"COSMOS 2251 DEB","OBJECT_ID":"1993-036TT","EPOCH":"2026-03-05T18:24:28.099296","MEAN_MOTION":14.07110513,"ECCENTRICITY":0.0200529,"INCLINATION":74.0791,"RA_OF_ASC_NODE":181.1386,"ARG_OF_PERICENTER":236.2593,"MEAN_ANOMALY":277.9716,"EPHEMERIS_TYPE":0,"CLASSIFICATION_TYPE":"U","NORAD_CAT_ID":34474,"ELEMENT_SET_NO":999,"REV_AT_EPOCH":86676,"BSTAR":0.0027239,"MEAN_MOTION_DOT":5.45e-5,"MEAN_MOTION_DDOT":0},{"OBJECT_NAME":"COSMOS 2251 DEB","OBJECT_ID":"1993-036TV","EPOCH":"2026-03-05T02:23:50.614368","MEAN_MOTION":13.82883117,"ECCENTRICITY":0.0317273,"INCLINATION":74.005,"RA_OF_ASC_NODE":303.5627,"ARG_OF_PERICENTER":145.2713,"MEAN_ANOMALY":216.9583,"EPHEMERIS_TYPE":0,"CLASSIFICATION_TYPE":"U","NORAD_CAT_ID":34476,"ELEMENT_SET_NO":999,"REV_AT_EPOCH":84776,"BSTAR":0.0032054808,"MEAN_MOTION_DOT":5.127e-5,"MEAN_MOTION_DDOT":0},{"OBJECT_NAME":"COSMOS 2251 DEB","OBJECT_ID":"1993-036TW","EPOCH":"2026-03-05T17:34:03.242208","MEAN_MOTION":14.57456787,"ECCENTRICITY":0.0074212,"INCLINATION":73.9759,"RA_OF_ASC_NODE":271.2724,"ARG_OF_PERICENTER":78.2413,"MEAN_ANOMALY":47.2368,"EPHEMERIS_TYPE":0,"CLASSIFICATION_TYPE":"U","NORAD_CAT_ID":34477,"ELEMENT_SET_NO":999,"REV_AT_EPOCH":89834,"BSTAR":0.00082678,"MEAN_MOTION_DOT":3.87e-5,"MEAN_MOTION_DDOT":0},{"OBJECT_NAME":"COSMOS 2251 DEB","OBJECT_ID":"1993-036TX","EPOCH":"2026-03-05T19:11:39.937920","MEAN_MOTION":15.18946393,"ECCENTRICITY":0.0031933,"INCLINATION":74.0418,"RA_OF_ASC_NODE":194.6527,"ARG_OF_PERICENTER":18.9688,"MEAN_ANOMALY":130.9762,"EPHEMERIS_TYPE":0,"CLASSIFICATION_TYPE":"U","NORAD_CAT_ID":34478,"ELEMENT_SET_NO":999,"REV_AT_EPOCH":90229,"BSTAR":0.0040012,"MEAN_MOTION_DOT":0.00085695,"MEAN_MOTION_DDOT":0}]
