COSMOS 2251 DEB         
1 34432U 93036RZ  26064.70604987  .00001711  00000+0  96534-3 0  9995
2 34432  73.8290 316.1230 0180199  23.4479   7.4315 14.03179522868488
COSMOS 2251 DEB         
1 34433U 93036SA  26064.80959292  .00003160  00000+0  15197-2 0  9994
2 34433  74.0116   7.7238 0150229 127.4922 233.9989 14.13449462871233
COSMOS 2251 DEB         
1 34434U 93036SB  26064.64106638  .00003753  00000+0  22210-2 0  9997
2 34434  74.0593 229.0236 0277391 346.5066 111.4364 13.90564160851189
COSMOS 2251 DEB         
1 34446U 93036SP  26064.58308571  .00000562  00000+0  15189-3 0  9996
2 34446  74.0389 261.9114 0050536  16.6047 343.6753 14.49455218898943
COSMOS 2251 DEB         
1 34449U 93036SS  26064.68085183  .00036468  00000+0  27856-2 0  9998
2 34449  74.0275 262.4208 0020284 285.9402 149.8142 15.01630257899354
COSMOS 2251 DEB         
1 34451U 93036SU  26064.62116177  .00034395  00000+0  25512-2 0  9997
2 34451  74.0434 279.7534 0020616 279.1659  80.7197 15.02752359898772
COSMOS 2251 DEB         
1 34452U 93036SV  26064.62113737  .00023034  00000+0  11880-2 0  9998
2 34452  74.0303  10.8123 0057760  65.6227 295.0980 15.14797930919160
COSMOS 2251 DEB         
1 34454U 93036SX  26064.58565676  .00000753  00000+0  25095-3 0  9995
2 34454  74.0578 125.0515 0034824 171.7145 188.4592 14.38953384892597
COSMOS 2251 DEB         
1 34459U 93036TC  26064.56503017  .00000658  00000+0  39102-3 0  9997
2 34459  74.0774 110.8797 0190591 161.7083 199.1034 14.00656925868715
COSMOS 2251 DEB         
1 34464U 93036TH  26064.54341402  .00221928  00000+0  41542-2 0  9994
2 34464  73.9787 259.8958 0011585  55.7030 304.5277 15.47734743911116
COSMOS 2251 DEB         
1 34468U 93036TM  26064.56231000  .00001343  00000+0  35790-3 0  9998
2 34468  74.0143 322.0112 0073965  86.9054 274.0566 14.47843804896601
COSMOS 2251 DEB         
1 34472U 93036TR  26064.70016653  .00002502  00000+0  19416-2 0  9998
2 34472  74.0854 321.6801 0327980  73.3042 290.3800 13.70633227848634
COSMOS 2251 DEB         
1 34474U 93036TT  26064.76699189  .00005450  00000+0  27239-2 0  9994
2 34474  74.0791 181.1386 0200529 236.2593 277.9716 14.07110513866763
COSMOS 2251 DEB         
1 34476U 93036TV  26064.09989137  .00005127  00000+0  32055-2 0  9990
2 34476  74.0050 303.5627 0317273 145.2713 216.9583 13.82883117847762
COSMOS 2251 DEB         
1 34477U 93036TW  26064.73198197  .00003870  00000+0  82678-3 0  9990
2 34477  73.9759 271.2724 0074212  78.2413  47.2368 14.57456787898349
COSMOS 2251 DEB         
1 34478U 93036TX  26064.79976780  .00085695  00000+0  40012-2 0  9999
2 34478  74.0418 194.6527 0031933  18.9688 130.9762 15.18946393902294
